NORAD_CAT_ID,OBJECT_NAME,OBJECT_TYPE,EPOCH,MEAN_MOTION,ECCENTRICITY,INCLINATION,RA_OF_ASC_NODE,ARG_OF_PERICENTER,MEAN_ANOMALY,BSTAR,MEAN_MOTION_DOT,MEAN_MOTION_DDOT,TLE_LINE0,TLE_LINE1,TLE_LINE2,SEMIMAJOR_AXIS,PERIOD,APOGEE,PERIGEE,DECAYED
49139.0,STARLINK-3057,PAYLOAD,2023-10-30 05:01:36,14.98338604,0.000189,70.002,266.5417,255.5531,104.5418,0.00026555,3.078e-05,0.0,0 STARLINK-3057,1 49139U 21082K   23303.20945353  .00003078  00000-0  26555-3 0  9995,2 49139  70.0020 266.5417 0001890 255.5531 104.5418 14.98338604117921,6950.166,96.106,573.345,570.718,0.0
49139.0,STARLINK-3057,PAYLOAD,2023-10-30 08:13:54,14.98317674,0.0002066,70.0008,266.2034,275.115,84.9773,7.1179e-05,7.56e-06,0.0,0 STARLINK-3057,1 49139U 21082K   23303.34299228  .00000756  00000-0  71179-4 0  9996,2 49139  70.0008 266.2034 0002066 275.1150  84.9773 14.98317674117941,6950.231,96.108,573.532,570.66,0.0
49139.0,STARLINK-3057,PAYLOAD,2023-10-30 14:38:25,14.98362958,0.0002083,70.0014,265.5303,279.199,80.8933,-0.0006418,-7.748e-05,0.0,0 STARLINK-3057,1 49139U 21082K   23303.61001860 -.00007748  00000-0 -64180-3 0  9992,2 49139  70.0014 265.5303 0002083 279.1990  80.8933 14.98362958117986,6950.091,96.105,573.404,570.508,0.0
49139.0,STARLINK-3057,PAYLOAD,2023-10-30 22:39:06,14.98329945,0.0002869,69.9996,264.6881,265.9736,94.1095,-6.483e-06,-1.7e-06,0.0,0 STARLINK-3057,1 49139U 21082K   23303.94382472 -.00000170  00000-0 -64830-5 0  9995,2 49139  69.9996 264.6881 0002869 265.9736  94.1095 14.98329945118039,6950.193,96.107,574.052,570.064,0.0
49139.0,STARLINK-3057,PAYLOAD,2023-10-31 03:27:21,14.98446871,0.000301,70.0005,264.1831,262.7073,97.3744,0.0013019,0.00015523,0.0,0 STARLINK-3057,1 49139U 21082K   23304.14400402  .00015523  00000-0  13019-2 0  9998,2 49139  70.0005 264.1831 0003010 262.7073  97.3744 14.98446871118068,6949.832,96.1,573.788,569.605,0.0
49139.0,STARLINK-3057,PAYLOAD,2023-10-31 06:39:46,14.98330192,0.0002758,69.999,263.8466,264.5768,95.5076,0.00015156,1.716e-05,0.0,0 STARLINK-3057,1 49139U 21082K   23304.27762037  .00001716  00000-0  15156-3 0  9991,2 49139  69.9990 263.8466 0002758 264.5768  95.5076 14.98330192118085,6950.192,96.107,573.974,570.14,0.0
49139.0,STARLINK-3057,PAYLOAD,2023-10-31 22:41:07,14.98323612,0.0002926,69.9992,262.1633,266.1533,93.9292,0.00012535,1.403e-05,0.0,0 STARLINK-3057,1 49139U 21082K   23304.94522413  .00001403  00000-0  12535-3 0  9998,2 49139  69.9992 262.1633 0002926 266.1533  93.9292 14.98323612118182,6950.213,96.107,574.111,570.044,0.0
49139.0,STARLINK-3057,PAYLOAD,2023-11-01 06:41:47,14.98325795,0.0002634,69.9998,261.3225,258.15,101.9364,0.00014756,1.668e-05,0.0,0 STARLINK-3057,1 49139U 21082K   23305.27902344  .00001668  00000-0  14756-3 0  9990,2 49139  69.9998 261.3225 0002634 258.1500 101.9364 14.98325795118237,6950.206,96.107,573.902,570.24,0.0
49139.0,STARLINK-3057,PAYLOAD,2023-11-01 14:42:27,14.98328962,0.0002595,70.0001,260.4802,271.5932,88.493,6.9809e-05,7.4e-06,0.0,0 STARLINK-3057,1 49139U 21082K   23305.61282357  .00000740  00000-0  69809-4 0  9993,2 49139  70.0001 260.4802 0002595 271.5932  88.4930 14.98328962118282,6950.196,96.107,573.865,570.258,0.0
49139.0,STARLINK-3057,PAYLOAD,2023-11-01 22:43:07,14.98331865,0.0003105,70.0003,259.6386,269.5582,90.5221,7.8901e-05,8.49e-06,0.0,0 STARLINK-3057,1 49139U 21082K   23305.94661972  .00000849  00000-0  78901-4 0  9996,2 49139  70.0003 259.6386 0003105 269.5582  90.5221 14.98331865118336,6950.187,96.107,574.21,569.894,0.0
49139.0,STARLINK-3057,PAYLOAD,2023-11-02 05:07:38,14.98349477,0.0002848,70.0006,258.9654,262.7064,97.3772,0.00052245,6.149e-05,0.0,0 STARLINK-3057,1 49139U 21082K   23306.21363884  .00006149  00000-0  52245-3 0  9999,2 49139  70.0006 258.9654 0002848 262.7064  97.3772 14.98349477118370,6950.133,96.106,573.977,570.018,0.0
49139.0,STARLINK-3057,PAYLOAD,2023-11-02 06:43:47,14.98330179,0.0003014,69.9994,258.796,268.0766,92.0048,0.00024594,2.843e-05,0.0,0 STARLINK-3057,1 49139U 21082K   23306.28041617  .00002843  00000-0  24594-3 0  9996,2 49139  69.9994 258.7960 0003014 268.0766  92.0048 14.98330179118383,6950.192,96.107,574.152,569.963,0.0
49139.0,STARLINK-3057,PAYLOAD,2023-11-02 22:45:08,14.98329522,0.0002391,70.0011,257.1122,250.5792,109.5109,5.8323e-05,6.03e-06,0.0,0 STARLINK-3057,1 49139U 21082K   23306.94801970  .00000603  00000-0  58323-4 0  9995,2 49139  70.0011 257.1122 0002391 250.5792 109.5109 14.98329522118484,6950.194,96.107,573.721,570.398,0.0
49139.0,STARLINK-3057,PAYLOAD,2023-11-03 06:45:49,14.98331439,0.0002659,70.0,256.2715,263.0276,97.0581,4.1477e-05,4.02e-06,0.0,0 STARLINK-3057,1 49139U 21082K   23307.28181909  .00000402  00000-0  41477-4 0  9995,2 49139  70.0000 256.2715 0002659 263.0276  97.0581 14.98331439118534,6950.188,96.107,573.901,570.205,0.0
49139.0,STARLINK-3057,PAYLOAD,2023-11-03 22:47:09,14.98328129,0.0002599,70.0001,254.5883,271.8273,88.2589,6.9188e-05,7.33e-06,0.0,0 STARLINK-3057,1 49139U 21082K   23307.94942091  .00000733  00000-0  69188-4 0  9991,2 49139  70.0001 254.5883 0002599 271.8273  88.2589 14.98328129118632,6950.199,96.107,573.87,570.257,0.0
49139.0,STARLINK-3057,PAYLOAD,2023-11-04 03:35:28,14.98398896,0.0003028,70.0007,254.0835,265.3111,94.7702,0.00077337,9.163e-05,0.0,0 STARLINK-3057,1 49139U 21082K   23308.14963972  .00009163  00000-0  77337-3 0  9995,2 49139  70.0007 254.0835 0003028 265.3111  94.7702 14.98398896118667,6949.98,96.103,573.949,569.74,0.0
49139.0,STARLINK-3057,PAYLOAD,2023-11-04 06:47:49,14.98340543,0.0002934,69.9994,253.7465,268.1596,91.9227,9.9296e-05,1.092e-05,0.0,0 STARLINK-3057,1 49139U 21082K   23308.28320996  .00001092  00000-0  99296-4 0  9995,2 49139  69.9994 253.7465 0002934 268.1596  91.9227 14.98340543118686,6950.16,96.106,574.064,569.986,0.0
49139.0,STARLINK-3057,PAYLOAD,2023-11-04 13:12:22,14.98338743,0.0002814,70.0001,253.0735,273.0185,87.0652,-0.00012797,-1.62e-05,0.0,0 STARLINK-3057,1 49139U 21082K   23308.55025595 -.00001620  00000-0 -12797-3 0  9991,2 49139  70.0001 253.0735 0002814 273.0185  87.0652 14.98338743118729,6950.166,96.106,573.987,570.075,0.0
49139.0,STARLINK-3057,PAYLOAD,2023-11-04 21:13:02,14.98324535,0.0002951,69.9999,252.2332,272.5506,87.5315,2.7626e-05,2.37e-06,0.0,0 STARLINK-3057,1 49139U 21082K   23308.88406172  .00000237  00000-0  27626-4 0  9990,2 49139  69.9999 252.2332 0002951 272.5506  87.5315 14.98324535118779,6950.21,96.107,574.126,570.024,0.0
49139.0,STARLINK-3057,PAYLOAD,2023-11-04 22:49:10,14.98330524,0.0002575,69.9996,252.0632,264.044,96.0426,-8.9657e-05,-1.163e-05,0.0,0 STARLINK-3057,1 49139U 21082K   23308.95082107 -.00001163  00000-0 -89657-4 0  9999,2 49139  69.9996 252.0632 0002575 264.0440  96.0426 14.98330524118786,6950.191,96.107,573.846,570.267,0.0
49139.0,STARLINK-3057,PAYLOAD,2023-11-05 03:37:34,14.98331167,0.0002643,70.0001,251.5604,258.5077,101.5785,0.00011512,1.281e-05,0.0,0 STARLINK-3057,1 49139U 21082K   23309.15109588  .00001281  00000-0  11512-3 0  9998,2 49139  70.0001 251.5604 0002643 258.5077 101.5785 14.98331167118817,6950.189,96.107,573.891,570.217,0.0
49139.0,STARLINK-3057,PAYLOAD,2023-11-05 06:49:50,14.98340245,0.0002815,69.9999,251.2224,266.8869,93.1968,0.00013753,1.549e-05,0.0,0 STARLINK-3057,1 49139U 21082K   23309.28460883  .00001549  00000-0  13753-3 0  9996,2 49139  69.9999 251.2224 0002815 266.8869  93.1968 14.98340245118835,6950.161,96.106,573.983,570.07,0.0
49139.0,STARLINK-3057,PAYLOAD,2023-11-05 13:14:22,14.98358476,0.0002467,70.0011,250.5485,275.2919,84.7959,-0.00035572,-4.338e-05,0.0,0 STARLINK-3057,1 49139U 21082K   23309.55164678 -.00004338  00000-0 -35572-3 0  9993,2 49139  70.0011 250.5485 0002467 275.2919  84.7959 14.98358476118872,6950.105,96.105,573.684,570.255,0.0
49139.0,STARLINK-3057,PAYLOAD,2023-11-05 22:51:10,14.9833983,0.0002442,70.0009,249.5376,266.9164,93.1715,0.00020307,2.331e-05,0.0,0 STARLINK-3057,1 49139U 21082K   23309.95220589  .00002331  00000-0  20307-3 0  9990,2 49139  70.0009 249.5376 0002442 266.9164  93.1715 14.98339830118932,6950.162,96.106,573.725,570.33,0.0
49139.0,STARLINK-3057,PAYLOAD,2023-11-06 03:39:33,14.9835762,0.0002797,69.9994,249.0334,263.8636,96.2204,0.00026439,3.065e-05,0.0,0 STARLINK-3057,1 49139U 21082K   23310.15247040  .00003065  00000-0  26439-3 0  9992,2 49139  69.9994 249.0334 0002797 263.8636  96.2204 14.98357620118961,6950.107,96.105,573.916,570.029,0.0
49139.0,STARLINK-3057,PAYLOAD,2023-11-06 13:16:23,14.98336926,0.0002634,69.9998,248.0234,280.4069,79.6793,-2.8687e-05,-4.35e-06,0.0,0 STARLINK-3057,1 49139U 21082K   23310.55304792 -.00000435  00000-0 -28687-4 0  9992,2 49139  69.9998 248.0234 0002634 280.4069  79.6793 14.98336926119020,6950.171,96.107,573.867,570.206,0.0
49139.0,STARLINK-3057,PAYLOAD,2023-11-06 21:17:06,14.98291898,0.0002868,70.0001,247.1824,276.1603,83.9229,-0.00032801,-4.001e-05,0.0,0 STARLINK-3057,1 49139U 21082K   23310.88688603 -.00004001  00000-0 -32801-3 0  9999,2 49139  70.0001 247.1824 0002868 276.1603  83.9229 14.98291898119073,6950.311,96.109,574.169,570.182,0.0
49139.0,STARLINK-3057,PAYLOAD,2023-11-07 03:41:38,14.98302873,0.0002441,70.0,246.5089,259.1824,100.906,-0.00026383,-3.237e-05,0.0,0 STARLINK-3057,1 49139U 21082K   23311.15392235 -.00003237  00000-0 -26383-3 0  9991,2 49139  70.0000 246.5089 0002441 259.1824 100.9060 14.98302873119115,6950.277,96.109,573.838,570.445,0.0
49139.0,STARLINK-3057,PAYLOAD,2023-11-07 13:18:27,14.98310756,0.0001945,70.0012,245.4982,277.6553,82.4385,-0.0002253,-2.779e-05,0.0,0 STARLINK-3057,1 49139U 21082K   23311.55448381 -.00002779  00000-0 -22530-3 0  9999,2 49139  70.0012 245.4982 0001945 277.6553  82.4385 14.98310756119179,6950.252,96.108,573.469,570.766,0.0
49139.0,STARLINK-3057,PAYLOAD,2023-11-07 19:42:59,14.98317288,0.0002915,70.0014,244.8244,273.0076,87.075,-0.00021004,-2.597e-05,0.0,0 STARLINK-3057,1 49139U 21082K   23311.82151803 -.00002597  00000-0 -21004-3 0  9992,2 49139  70.0014 244.8244 0002915 273.0076  87.0750 14.98317288119212,6950.232,96.108,574.123,570.071,0.0
